ONEWEB-0233             
1 48795U 21045AE  24173.65254694  .00000079  00000+0  17646-3 0  9995
2 48795  87.9039  43.6234 0002023  83.8588 276.2773 13.15065204148903
ONEWEB-0190             
1 48796U 21045AF  24173.72360595  .00000164  00000+0  40201-3 0  9990
2 48796  87.9038  43.5724 0002822  74.4771 285.6671 13.15550390148987
ONEWEB-0236             
1 48797U 21045AG  24173.66497856 -.00000004  00000+0 -44548-4 0  9999
2 48797  87.9040  43.5776 0001867  77.4897 282.6442 13.15549648148862
ONEWEB-0248             
1 48798U 21045AH  24173.67765813 -.00000056  00000+0 -18156-3 0  9994
2 48798  87.9033  43.5656 0002296  63.5473 296.5893 13.15549441149029
ONEWEB-0225             
1 48799U 21045AJ  24173.69983853  .00000174  00000+0  42736-3 0  9993
2 48799  87.9038  43.5734 0002252  74.5415 285.5964 13.15549757149030
ONEWEB-0215             
1 48800U 21045AK  24173.66972192 -.00000065  00000+0 -20755-3 0  9995
2 48800  87.9032  43.5532 0002599  67.2085 292.9320 13.15549298148902
ONEWEB-0216             
1 48801U 21045AL  24173.67924036 -.00000037  00000+0 -13141-3 0  9991
2 48801  87.9032  43.5924 0002111  87.8997 272.2375 13.15549377148918
ONEWEB-0239             
1 48802U 21045AM  24173.68399279  .00000030  00000+0  44607-4 0  9991
2 48802  87.9043  43.5675 0002451  61.2198 298.9179 13.15549911148955
